TJS-15                  
1 63157U 25045A   26199.81210330 -.00000272  00000+0  00000+0 0  9993
2 63157   0.3094  85.6905 0003083 294.8019 302.8663  1.00272854  5079
TIANLIAN 2-04           
1 63361U 25062A   26200.85004855 -.00000136  00000+0  00000+0 0  9998
2 63361   4.2920 273.9682 0031395   9.2648  40.4454  1.00272695  4934
TJS-16                  
1 63397U 25064A   26199.72539708 -.00000112  00000+0  00000+0 0  9996
2 63397   1.1777  81.2665 0002454 294.7569 342.2525  1.00271244  4703
TJS-17                  
1 63524U 25073A   26199.82514919 -.00000077  00000+0  00000+0 0  9996
2 63524   1.1440  82.4266 0001008 314.2292   1.5118  1.00271316  4609
TIANLIAN 2-05           
1 63662U 25084A   26200.86294642  .00000123  00000+0  00000+0 0  9997
2 63662   4.3695 279.4618 0002724 157.9778 191.2335  1.00273437  4700
TJS-19                  
1 63924U 25097A   26199.82118086 -.00000281  00000+0  00000+0 0  9998
2 63924   3.2341 317.9697 0004110 251.3720 164.1101  1.00274857  4469
CHINASAT 3B             
1 64062U 25106A   26200.15447947 -.00000050  00000+0  00000+0 0  9997
2 64062   0.0330 186.5072 0004139 319.2493  14.1137  1.00272149  4381
SXM-10                  
1 64290U 25122A   26200.61572735 -.00000021  00000+0  00000+0 0  9991
2 64290   0.0162  42.8511 0001924 321.6711  38.3693  1.00270545  4000
COSMOS 2589             
1 64467U 25131A   26199.81911373 -.00000297  00000+0  00000+0 0  9996
2 64467   0.0238 120.2702 0001222  64.5231 144.7079  1.00268636  3876
CHINASAT 9C             
1 64470U 25132A   26200.84251380 -.00000251  00000+0  00000+0 0  9992
2 64470   0.0138  98.6265 0003482  17.0260 217.4709  1.00273296  4479
MTG-S1                  
1 64723U 25143A   26200.83414602 -.00000010  00000+0  00000+0 0  9995
2 64723   0.5818 346.2050 0003270 258.3783 352.9636  1.00274996  3740
DROR 1                  
1 64784U 25148A   26200.83336602 -.00000038  00000+0  00000+0 0  9990
2 64784   0.0373 245.1137 0001886 160.8686 187.6459  1.00270414  3625
SHIYAN-29               
1 65486U 25196A   26198.96433682 -.00000287  00000+0  00000+0 0  9995
2 65486  28.8546  18.1469 0013154 177.5801 182.5349  1.00275892  3184
NUSANTARA LIMA (NUSANT*)
1 65588U 25205A   26200.85654858 -.00000361  00000+0  00000+0 0  9994
2 65588   0.0080 119.2589 0000427  68.2587 171.3271  1.00272199  3046
TJS-20                  
1 66142U 25238A   26200.84658185  .00000025  00000+0  00000+0 0  9999
2 66142   5.3968 299.4263 0003858 187.8737 177.5362  1.00268354  2666
CMS-03 (GSAT-7R)        
1 66311U 25249B   26200.84883521  .00000000  00000+0  00000+0 0  9996
2 66311   0.0169  58.5795 0002483  58.9976 199.6325  1.00270022  2679
VIASAT-3 F2             
1 66454U 25261A   26200.81845931 -.00000237  00000+0  00000+0 0  9991
2 66454   0.0009 221.8550 0000472 353.7575 297.6643  1.00270633  3122
SHIJIAN-28 (SJ-28)      
1 66549U 25277A   26200.80878049 -.00000361  00000+0  00000+0 0  9996
2 66549   4.4551 271.6129 0001180  55.1968  18.7632  1.00274762  2483
TJS-22                  
1 66990U 25290A   26193.80754925 -.00000005  00000+0  00000+0 0  9993
2 66990   1.4677 286.9097 0002691 318.9700  42.0235  1.00269739  2289
TJS-23                  
1 67226U 25306A   26200.51284444  .00000015  00000+0  00000+0 0  9995
2 67226   5.5160 297.3167 0004406 199.9656 160.1885  1.00268343  2217
FENGYUN 4C              
1 67246U 25312A   26194.65865777 -.00000328  00000+0  00000+0 0  9993
2 67246   0.0385 175.3203 0000658  48.7481  77.5697  1.00269440  2048
SHIJIAN-29A (SJ-29A)    
1 67302U 25315A   26200.62685200 -.00000073  00000+0  00000+0 0  9992
2 67302   3.4786  94.3301 0004998  50.6535  91.2723  1.00273139  1946
SHIJIAN-29B (SJ-29B)    
1 67403U 25315C   26200.59727576 -.00000074  00000+0  00000+0 0  9994
2 67403   3.4774  94.3238 0005195  54.0615  77.2457  1.00273409  2018
ELEKTRO-L 5             
1 67756U 26028A   26199.96427910 -.00000104  00000+0  00000+0 0  9998
2 67756   0.2028 326.9083 0002076 176.1187 216.9691  1.00271836  1566
JAM-E JAM 1             
1 67757U 26028B   26200.87603721  .00000153  00000+0  00000+0 0  9991
2 67757   0.1981 315.2572 0000735 258.7248  73.0405  1.00266646  1448
ECHOSTAR 25             
1 68126U 26045A   26200.61016971 -.00000060  00000+0  00000+0 0  9996
2 68126   0.0190  51.1163 0001690  53.0478 302.8792  1.00269152  1317
TJS-24                  
1 69235U 26116A   26200.90451748 -.00000235  00000+0  00000+0 0  9998
2 69235   0.0890  94.2245 0000326 144.0190 115.3634  1.00273675   554
