OBJECT_NAME,OBJECT_ID,EPOCH,MEAN_MOTION,ECCENTRICITY,INCLINATION,RA_OF_ASC_NODE,ARG_OF_PERICENTER,MEAN_ANOMALY,EPHEMERIS_TYPE,CLASSIFICATION_TYPE,NORAD_CAT_ID,ELEMENT_SET_NO,REV_AT_EPOCH,BSTAR,MEAN_MOTION_DOT,MEAN_MOTION_DDOT
TJS-15,2025-045A,2026-07-18T19:29:25.725120,1.00272854,.0003083,0.3094,85.6905,294.8019,302.8663,0,U,63157,999,507,0,-.272E-5,0
TIANLIAN 2-04,2025-062A,2026-07-19T20:24:04.194720,1.00272695,.0031395,4.2920,273.9682,9.2648,40.4454,0,U,63361,999,493,0,-.136E-5,0
TJS-16,2025-064A,2026-07-18T17:24:34.307712,1.00271244,.0002454,1.1777,81.2665,294.7569,342.2525,0,U,63397,999,470,0,-.112E-5,0
TJS-17,2025-073A,2026-07-18T19:48:12.890016,1.00271316,.0001008,1.1440,82.4266,314.2292,1.5118,0,U,63524,999,460,0,-.77E-6,0
TIANLIAN 2-05,2025-084A,2026-07-19T20:42:38.570688,1.00273437,.0002724,4.3695,279.4618,157.9778,191.2335,0,U,63662,999,470,0,.123E-5,0
TJS-19,2025-097A,2026-07-18T19:42:30.026304,1.00274857,.000411,3.2341,317.9697,251.3720,164.1101,0,U,63924,999,446,0,-.281E-5,0
CHINASAT 3B,2025-106A,2026-07-19T03:42:27.026208,1.00272149,.00041395,0.0330,186.5072,319.2493,14.1137,0,U,64062,999,438,0,-.5E-6,0
SXM-10,2025-122A,2026-07-19T14:46:38.843040,1.00270545,.0001924,0.0162,42.8511,321.6711,38.3693,0,U,64290,999,400,0,-.21E-6,0
COSMOS 2589,2025-131A,2026-07-18T19:39:31.426272,1.00268636,.0001222,0.0238,120.2702,64.5231,144.7079,0,U,64467,999,387,0,-.297E-5,0
CHINASAT 9C,2025-132A,2026-07-19T20:13:13.192320,1.00273296,.0003482,0.0138,98.6265,17.0260,217.4709,0,U,64470,999,447,0,-.251E-5,0
MTG-S1,2025-143A,2026-07-19T20:01:10.216128,1.00274996,.000327,0.5818,346.2050,258.3783,352.9636,0,U,64723,999,374,0,-.1E-6,0
DROR 1,2025-148A,2026-07-19T20:00:02.824128,1.00270414,.0001886,0.0373,245.1137,160.8686,187.6459,0,U,64784,999,362,0,-.38E-6,0
SHIYAN-29,2025-196A,2026-07-17T23:08:38.701248,1.00275892,.00131541,28.8546,18.1469,177.5801,182.5349,0,U,65486,999,318,0,-.287E-5,0
NUSANTARA LIMA (NUSANTARA 5),2025-205A,2026-07-19T20:33:25.797312,1.00272199,.0000427,0.0080,119.2589,68.2587,171.3271,0,U,65588,999,304,0,-.361E-5,0
TJS-20,2025-238A,2026-07-19T20:19:04.671840,1.00268354,.0003858,5.3968,299.4263,187.8737,177.5362,0,U,66142,999,266,0,.25E-6,0
CMS-03 (GSAT-7R),2025-249B,2026-07-19T20:22:19.362144,1.00270022,.0002483,0.0169,58.5795,58.9976,199.6325,0,U,66311,999,267,0,0,0
VIASAT-3 F2,2025-261A,2026-07-19T19:38:34.884384,1.00270633,.0000472,0.0009,221.8550,353.7575,297.6643,0,U,66454,999,312,0,-.237E-5,0
SHIJIAN-28 (SJ-28),2025-277A,2026-07-19T19:24:38.634336,1.00274762,.000118,4.4551,271.6129,55.1968,18.7632,0,U,66549,999,248,0,-.361E-5,0
TJS-22,2025-290A,2026-07-12T19:22:52.255200,1.00269739,.0002691,1.4677,286.9097,318.9700,42.0235,0,U,66990,999,228,0,-.5E-7,0
TJS-23,2025-306A,2026-07-19T12:18:29.759616,1.00268343,.0004406,5.5160,297.3167,199.9656,160.1885,0,U,67226,999,221,0,.15E-6,0
FENGYUN 4C,2025-312A,2026-07-13T15:48:28.031328,1.00269440,.00006584,0.0385,175.3203,48.7481,77.5697,0,U,67246,999,204,0,-.328E-5,0
SHIJIAN-29A (SJ-29A),2025-315A,2026-07-19T15:02:40.012800,1.00273139,.00049982,3.4786,94.3301,50.6535,91.2723,0,U,67302,999,194,0,-.73E-6,0
SHIJIAN-29B (SJ-29B),2025-315C,2026-07-19T14:20:04.625664,1.00273409,.00051959,3.4774,94.3238,54.0615,77.2457,0,U,67403,999,201,0,-.74E-6,0
ELEKTRO-L 5,2026-028A,2026-07-18T23:08:33.714240,1.00271836,.00020761,0.2028,326.9083,176.1187,216.9691,0,U,67756,999,156,0,-.104E-5,0
JAM-E JAM 1,2026-028B,2026-07-19T21:01:29.614944,1.00266646,.0000735,0.1981,315.2572,258.7248,73.0405,0,U,67757,999,144,0,.153E-5,0
ECHOSTAR 25,2026-045A,2026-07-19T14:38:38.662944,1.00269152,.000169,0.0190,51.1163,53.0478,302.8792,0,U,68126,999,131,0,-.6E-6,0
TJS-24,2026-116A,2026-07-19T21:42:30.310272,1.00273675,.0000326,0.0890,94.2245,144.0190,115.3634,0,U,69235,999,55,0,-.235E-5,0
